#aV2009 12  7  0  0   .00000000      96 DD+AD WGS84 FIT  NGA
## 1561  86400.00000000   900.00000000 55172  .0000000000000
+   32     1  2  3  4  5  6  7  8  9 10 11 12 13 14 15 16 17
+         18 19 20 21 22 23 24 25 26 27 28 29 30 31 32  0  0
+          0  0  0  0  0  0  0  0  0  0  0  0  0  0  0  0  0
+          0  0  0  0  0  0  0  0  0  0  0  0  0  0  0  0  0
+          0  0  0  0  0  0  0  0  0  0  0  0  0  0  0  0  0
++         0  0  0  0  0  0  0  0  0  0  0  0  0  0  0  0  0
++         0  0  0  0  0  0  0  0  0  0  0  0  0  0  0  0  0
++         0  0  0  0  0  0  0  0  0  0  0  0  0  0  0  0  0
++         0  0  0  0  0  0  0  0  0  0  0  0  0  0  0  0  0
++         0  0  0  0  0  0  0  0  0  0  0  0  0  0  0  0  0
%c cc cc ccc ccc cccc cccc cccc cccc ccccc ccccc ccccc ccccc
%c cc cc ccc ccc cccc cccc cccc cccc ccccc ccccc ccccc ccccc
%f  0.0000000  0.000000000  0.00000000000  0.000000000000000
%f  0.0000000  0.000000000  0.00000000000  0.000000000000000
%i    0    0    0    0      0      0      0      0         0
%i    0    0    0    0      0      0      0      0         0
/*      NGA, ST. LOUIS,MO.                                  
/*   EPHEMERIS COMPUTED FROM  3 DAYS OF DATA                
/* CCCCCCCCCCCCCCCCCCCCCCCCCCCCCCCCCCCCCCCCCCCCCCCCCCCCCCCCC
/* CCCCCCCCCCCCCCCCCCCCCCCCCCCCCCCCCCCCCCCCCCCCCCCCCCCCCCCCC
*  2009 12  7 16 30   .00000000                                                 
P  1 -19238.759171  16240.037690   8188.345418    -69.753121                    
V  1   4196.197271 -10051.672461  29532.074031      -.026018                    
P  2 -13645.871618 -22597.420711  -4655.876374    200.722266                    
V  2    428.402076  -6497.687454  30282.628629       .046255                    
P  3  19635.884297  11112.312403 -14629.171436    484.686092                    
V  3 -17957.292072   2406.259189 -22474.401605       .052255                    
P  4  -5234.927213 -24951.609520   6561.974948   -395.462752                    
V  4   6716.247961   6571.749280  29989.187530      -.185517                    
P  5 -10508.096463 -11221.104855 -21666.980774    -32.293986                    
V  5  16756.421890 -21789.614025   3239.020465       .056472                    
P  6  16307.920739  13217.589951 -16154.461895    263.483311                    
V  6 -21003.176145    798.139249 -20222.853551       .003856                    
P  7  11049.546148 -11377.350707 -21287.941699      6.392465                    
V  7  11079.118043  24644.183445  -7575.573965      -.006820                    
P  8   3205.475918 -21259.226873 -15255.233169       .580384                    
V  8   7959.042554  17863.563950 -23764.536037       .004113                    
P  9 -17070.605228  -8148.867439  18006.728446     92.721739                    
V  9  -8798.053209 -22549.249426 -17853.473913       .021106                    
P 10  -6947.304558 -14984.450427 -20895.502270    -29.886729                    
V 10  17075.939241 -19956.482313   9044.882549      -.008268                    
P 11  19546.471490   2532.348538  17704.606904    -33.040803                    
V 11  11565.429151  20193.347406 -15073.599436      -.020227                    
P 12 -18862.368092   3968.040914  18271.448381   -179.751721                    
V 12  12913.810209 -19225.475312  17687.089690       .051720                    
P 13  20044.304141  -6889.236209 -16139.925580    306.504661                    
V 13  19619.070065   4913.774499  22426.042997       .000975                    
P 14  -3543.806879  14294.694689  22238.867420    -15.080098                    
V 14 -27418.106561  -4752.084880  -1443.457297       .047091                    
P 15 -24491.426795  -7652.334803  -7016.718725   -318.636363                    
V 15   9179.938653  -1793.461435 -29868.377303       .010375                    
P 16   3872.920270  17013.219265 -19902.178686    -16.810773                    
V 16 -16749.559090  19160.410107  13332.978179      -.042297                    
P 17   2402.969923 -15087.656591  21800.741141    109.562755                    
V 17  27205.853230   4064.397006   -388.276336       .036837                    
P 18 -17514.066717  19559.791314  -2051.820914     33.013808                    
V 18  -1140.367121  -4673.910199 -31382.826568       .027011                    
P 19  24827.829328   8533.940337  -4889.079154     -2.669961                    
V 19  -6606.085566   1346.495469 -30686.260211      -.020545                    
P 20  19863.950106  -8947.336632  15027.782601     65.966881                    
V 20  -9174.145468  17269.367878  22272.713624      -.008369                    
P 21  -8715.784003  15869.561705 -18933.220748    -26.064142                    
V 21 -11238.213721 -22382.969855 -14004.806258      -.024036                    
P 22  -9740.212436  22926.450551   9271.232021    184.505117                    
V 22  -9797.479278   7012.576853 -28206.035849      -.007754                    
P 23  26212.489136   -168.789983  -5224.278646    384.820069                    
V 23   6191.040779   3062.430938  30826.821883      -.006771                    
P 24 -15715.044611   1251.221655 -21239.486476    242.958434                    
V 24  -8734.323270 -25868.659920   5159.665863       .032414                    
P 25  13865.633662  -5409.956452 -21644.131908     45.957586                    
V 25  13127.614031  25064.977628   2294.621550       .123021                    
P 26 -13756.932050  10553.749247  19725.409639      -.774596                    
V 26 -25453.450922  -5465.533035 -13985.990200      -.023953                    
P 27 -18039.668771 -10607.107445  17088.506952    106.340806                    
V 27  -7801.688103 -18805.411857 -20699.482302       .033542                    
P 28  11637.593142 -22611.729208   7524.585859    -24.896362                    
V 28   7685.186986  -5391.684967 -30188.323909       .003059                    
P 29 -22519.656601   5606.282727 -12789.707554     80.239776                    
V 29 -15855.649052  -4821.347158  25666.119181       .031185                    
P 30 -19067.340429  15353.966620   9841.297646    199.548501                    
V 30   5100.121204 -12379.438364  28156.003747       .032726                    
P 31   6910.292265  25109.613799   4998.991983    -59.274111                    
V 31  -4579.816821  -4679.458667  31327.284257       .009850                    
P 32  17752.854712   1128.352265  19997.445353    142.842438                    
V 32 -15592.926012  19166.727001  13307.558519      -.077496                    
EOF
